# From MPC106342
C/1995 O1 (Hale-Bopp),e,88.9883,283.3647,130.5930,179.8738,0.0004086,0.99493662,0.0000,03/29.6928/1997,2000,g -2.0,4.0
# From MPEC 2020-N31
C/2004 Q1 (Tucker),e,56.2340,22.1039,32.8843,163.5348,0.0004713,0.98748116,0.0000,11/27.9215/2004,2000,g  9.5,4.0
# From MPEC 2020-N31
C/2007 U1 (LINEAR),e,157.7671,50.3800,1.0837,6779,0.0000018,0.99951199,0.0000,08/04.8962/2008,2000,g  9.0,4.0
# From MPEC 2020-N31
C/2007 VO53 (Spacewatch),e,86.9220,59.7203,75.1575,6549,0.0000019,0.99925670,0.0000,04/19.0562/2010,2000,g  7.0,4.0
# From NK 1615
P/1996 R2 (Lagerkvist),e,2.6003,40.0392,333.2971,3.774830,0.1343872,0.31393442,70.6146,07/21.0/2020,2000,g 11.5,4.0
# From MPC 30063
P/1997 B1 (Kobayashi),e,12.3398,328.8878,183.3775,8.563408,0.0393309,0.76005629,335.7787,07/21.0/2020,2000,g 15.0,2.0
# From MPC 75703
P/1998 VS24 (LINEAR),e,5.0247,159.0302,244.7080,4.530257,0.1022162,0.24182146,93.5300,07/21.0/2020,2000,g 13.0,2.0
# From NK 731
P/1999 RO28 (LONEOS),e,7.5663,137.8827,231.2725,3.426702,0.1553780,0.67197185,60.7439,07/21.0/2020,2000,g 20.0,2.0
# From MPC 75704
P/1999 XN120 (Catalina),e,5.0297,285.2963,161.9323,4.179026,0.1153696,0.21044007,131.0471,07/21.0/2020,2000,g 13.5,2.0
# From NK 744
P/2000 R2 (LINEAR),e,11.6838,160.2987,176.4988,3.465553,0.1527725,0.53153188,61.0524,07/21.0/2020,2000,g 18.0,4.0
# From MPC 43019
P/2001 H5 (NEAT),e,8.3678,328.6864,224.8765,6.098331,0.0654467,0.59885133,113.6151,07/21.0/2020,2000,g 12.0,4.0
# From MPC 75704
P/2001 Q6 (NEAT),e,56.8975,22.1122,42.9557,7.949099,0.0439772,0.82271917,302.0246,07/21.0/2020,2000,g 13.5,4.0
# From MPC 47727
P/2002 EJ57 (LINEAR),e,4.9758,330.3388,167.3376,6.473885,0.0598352,0.59307746,45.6706,07/21.0/2020,2000,g 12.5,4.0
# From MPC109588
P/2002 T5 (LINEAR),e,30.8530,123.0879,326.7856,7.003129,0.0531822,0.43773526,332.7282,07/21.0/2020,2000,g  8.0,4.0
# From MPC109588
P/2002 T6 (NEAT-LINEAR),e,10.8333,206.5714,219.5179,7.665323,0.0464417,0.55972907,291.9901,07/21.0/2020,2000,g 10.5,4.0
# From MPC 75007
C/2002 VQ94 (LINEAR),e,70.5410,34.9874,100.1894,186.4895,0.0003870,0.96334416,2.0466,07/21.0/2020,2000,g  9.5,2.0
# From MPC 50354
P/2003 F2 (NEAT),e,11.6053,359.0869,191.8649,6.486141,0.0596657,0.54204640,15.0284,07/21.0/2020,2000,g 16.5,2.0
# From MPC 50139
P/2003 QX29 (NEAT),e,11.3899,264.5993,37.3522,8.035473,0.0432700,0.47292664,280.3525,07/21.0/2020,2000,g  8.5,4.0
# From MPC105235
P/2003 T12 (SOHO),e,11.0161,174.5741,219.7717,2.586183,0.2369819,0.76961644,17.8075,07/21.0/2020,2000,g 17.0,4.0
# From MPC 82312
P/2004 A1 (LONEOS),e,10.5516,124.8478,21.4875,7.952980,0.0439450,0.30945366,255.5217,07/21.0/2020,2000,g  6.5,4.0
# From MPC 54558
P/2004 DO29 (Spacewatch-LINEAR),e,14.5314,147.3850,40.7526,7.281114,0.0501658,0.44147356,289.0338,07/21.0/2020,2000,g 13.5,2.0
# From MPC 54823
P/2004 FY140 (LINEAR),e,2.1348,326.7622,242.4841,4.900785,0.0908460,0.16884550,165.5266,07/21.0/2020,2000,g 12.5,2.0
# From MPC 53304
P/2004 R3 (LINEAR-NEAT),e,12.8192,305.4920,39.2518,4.783272,0.0942142,0.26090336,318.8586,07/21.0/2020,2000,g 14.5,4.0
# From MPC 55521
P/2004 V3 (Siding Spring),e,50.4272,356.1116,322.2710,7.145874,0.0515966,0.44629250,297.1132,07/21.0/2020,2000,g 11.5,4.0
# From MPC 75705
P/2004 V5 (LINEAR-Hill),e,19.3471,47.7593,87.8350,7.973727,0.0437736,0.44355015,246.7896,07/21.0/2020,2000,g  8.0,4.0
# From MPC 54164
P/2005 E1 (Tubbiolo),e,4.2637,335.5768,194.1639,7.035608,0.0528143,0.37525356,298.4094,07/21.0/2020,2000,g 10.0,4.0
# From MPC 54823
P/2005 GF8 (LONEOS),e,1.1937,314.8359,285.3050,5.873729,0.0692362,0.51842892,20.4126,07/21.0/2020,2000,g 11.5,4.0
# From MPC 79019
P/2005 J1 (McNaught),e,31.7688,268.7985,338.9514,3.569408,0.1461537,0.57001741,94.5916,07/21.0/2020,2000,g 16.5,4.0
# From MPC 74246
P/2005 L1 (McNaught),e,7.7385,138.2475,149.6669,3.975567,0.1243385,0.20933831,301.6250,07/21.0/2020,2000,g  9.5,4.0
# From MPC 75706
P/2005 S2 (Skiff),e,3.1356,161.1899,229.1707,8.018695,0.0434059,0.19657459,225.2380,07/21.0/2020,2000,g  7.5,4.0
# From MPC 75706
P/2005 SB216 (LONEOS),e,24.0659,1.2660,83.4034,7.125457,0.0518185,0.46306965,255.8357,07/21.0/2020,2000,g 12.0,2.0
# From MPC 55717
P/2005 T2 (Christensen),e,8.2927,260.1572,58.8052,3.846404,0.1306537,0.41650232,13.5410,07/21.0/2020,2000,g 14.5,4.0
# From MPC 73461
P/2005 T3 (Read),e,6.2257,27.7644,7.1675,7.574332,0.0472811,0.17366475,254.6682,07/21.0/2020,2000,g  9.0,4.0
# From MPC 73461
P/2005 T4 (SWAN),e,160.1622,25.6189,41.5230,9.360499,0.0344156,0.93002826,186.1986,07/21.0/2020,2000,g 15.0,4.0
# From MPC 75706
P/2005 T5 (Broughton),e,21.3478,57.0116,304.5010,7.292791,0.0500453,0.55177689,270.4171,07/21.0/2020,2000,g 11.0,4.0
# From MPC 56954
P/2005 W3 (Kowalski),e,16.4142,210.1073,200.6127,6.336053,0.0617982,0.54362582,333.6397,07/21.0/2020,2000,g 12.0,4.0
# From MPC 75706
P/2005 XA54 (LONEOS-Hill),e,17.1186,143.6719,15.1449,6.051516,0.0662076,0.71016070,347.2686,07/21.0/2020,2000,g 14.0,4.0
# From MPC 75706
P/2005 Y2 (McNaught),e,19.1061,94.5174,194.1210,6.371121,0.0612887,0.46936878,354.3459,07/21.0/2020,2000,g  9.0,4.0
# From MPC 56954
P/2006 F4 (Spacewatch),e,12.3907,183.9354,31.2378,3.529258,0.1486548,0.33907227,52.4954,07/21.0/2020,2000,g 15.0,4.0
# From MPC 58118
P/2006 H1 (McNaught),e,12.8050,359.8916,309.2831,5.770999,0.0710931,0.58018642,16.1010,07/21.0/2020,2000,g 12.5,4.0
# From MPC 75707
P/2006 HR30 (Siding Spring),e,31.8307,309.9002,117.2948,7.811294,0.0451460,0.84184838,224.2458,07/21.0/2020,2000,g 11.0,4.0
# From MPC 75707
P/2006 S4 (Christensen),e,39.5396,36.1007,305.1563,6.308551,0.0622028,0.50776018,326.2349,07/21.0/2020,2000,g 11.0,4.0
# From MPC 75707
P/2007 A2 (Christensen),e,26.4875,300.9056,186.7826,6.322365,0.0619990,0.55746139,306.5847,07/21.0/2020,2000,g 13.5,4.0
# From MPC 59319
P/2007 B1 (Christensen),e,12.3769,77.6671,46.7635,5.818096,0.0702316,0.58083593,346.7489,07/21.0/2020,2000,g 13.5,4.0
# From MPC 75707
P/2007 C2 (Catalina),e,8.6742,275.6927,179.7827,6.997735,0.0532436,0.46924910,249.3837,07/21.0/2020,2000,g 10.0,4.0
# From MPC 84315
C/2007 D1 (LINEAR),e,41.5010,171.1558,340.1565,1657,0.0000146,0.99466910,0.0000,06/10.6356/2007,2000,g  3.5,4.0
# From MPC 82314
P/2007 K2 (Gibbs),e,7.6396,188.6489,347.4885,7.260800,0.0503764,0.68356105,241.3977,07/21.0/2020,2000,g 14.0,4.0
# From MPC 60925
P/2007 Q2 (Gilmore),e,10.2008,172.1709,162.7794,5.658357,0.0732265,0.67048028,350.5541,07/21.0/2020,2000,g 16.0,4.0
# From MPC 75708
P/2007 R2 (Gibbs),e,1.2166,11.4298,352.3750,3.573391,0.1459094,0.54229663,351.6547,07/21.0/2020,2000,g 17.0,4.0
# From MPC 75708
P/2007 R4 (Garradd),e,20.2319,87.2204,282.7193,5.920102,0.0684243,0.66984431,325.3799,07/21.0/2020,2000,g 14.5,4.0
# From MPC 73462
P/2007 S1 (Zhao),e,5.9627,141.3899,245.8063,3.811153,0.1324706,0.33972781,252.7235,07/21.0/2020,2000,g 13.0,4.0
# From MPC 61994
P/2007 T2 (Kowalski),e,9.7422,3.3771,359.6343,3.047358,0.1852759,0.78511087,134.9531,07/21.0/2020,2000,g 18.5,4.0
# From MPC 75708
P/2007 VQ11 (Catalina),e,12.3201,163.8172,277.6794,5.425618,0.0779884,0.50322090,355.3952,07/21.0/2020,2000,g 12.0,4.0
# From MPC 75708
P/2008 CL94 (Lemmon),e,8.3482,33.3388,80.6197,6.159248,0.0644782,0.12010041,332.3312,07/21.0/2020,2000,g  8.0,4.0
# From MPC 75709
P/2008 L2 (Hill),e,25.8521,218.0040,141.2015,6.028853,0.0665813,0.61287646,291.7939,07/21.0/2020,2000,g 12.5,4.0
# From MPC 64114
P/2008 O3 (Boattini),e,32.2334,47.6073,341.0789,8.224645,0.0417858,0.69476561,185.6699,07/21.0/2020,2000,g 13.0,4.0
# From MPC 75709
P/2008 QP20 (LINEAR-Hill),e,7.5185,322.1060,75.7127,3.549250,0.1474006,0.49274910,281.8679,07/21.0/2020,2000,g 15.5,4.0
# From MPC 66204
P/2008 WZ96 (LINEAR),e,7.1194,56.5722,341.7978,3.491946,0.1510438,0.47105255,299.3609,07/21.0/2020,2000,g 13.5,4.0
# From MPC 75710
P/2008 Y3 (McNaught),e,38.7600,262.7824,238.3112,8.045327,0.0431905,0.44561042,182.3776,07/21.0/2020,2000,g  8.5,4.0
# From MPC 75710
P/2009 B1 (Boattini),e,22.2183,297.0929,128.9124,6.734993,0.0563895,0.63451201,237.3967,07/21.0/2020,2000,g 13.0,4.0
# From MPC 66466
C/2009 G1 (STEREO),e,108.7542,120.4290,175.3636,418.4939,0.0001151,0.99729249,0.0000,04/14.6905/2009,2000,g  9.0,4.0
# From MPEC 2020-N31
P/2009 O3 (Hill),e,16.2569,183.7273,154.3658,7.771614,0.0454922,0.68734921,185.6784,07/21.0/2020,2000,g 12.5,4.0
# From MPEC 2020-N31
C/2010 U3 (Boattini),e,55.5171,43.0420,88.0764,2577,0.0000075,0.99672323,0.0000,02/26.0997/2019,2000,g  1.0,4.0
# From MPEC 2020-N31
C/2011 KP36 (Spacewatch),e,18.9833,173.3111,180.6249,38.79848,0.0040783,0.87425154,6.1812,07/21.0/2020,2000,g  4.5,4.0
# From MPC 98557
P/2009 Q1 (Hill),e,14.5051,173.9573,157.1171,5.519975,0.0759973,0.49465876,308.9141,07/21.0/2020,2000,g 11.5,4.0
# From MPC112389
P/2009 Q4 (Boattini),e,11.0153,127.4652,320.2292,3.127837,0.1781713,0.58254035,331.6749,07/21.0/2020,2000,g 15.5,4.0
# From MPC 68902
P/2009 Q5 (McNaught),e,40.9654,160.2542,209.0164,7.439537,0.0485719,0.60838103,193.1255,07/21.0/2020,2000,g 10.0,4.0
# From MPC112389
P/2009 T2 (La Sagra),e,27.5336,215.7709,216.4480,7.725209,0.0459027,0.76488731,177.1048,07/21.0/2020,2000,g 14.0,4.0
# From MPC 75711
P/2009 U4 (McNaught),e,10.0817,55.3600,259.8520,5.081020,0.0860553,0.67596336,343.2076,07/21.0/2020,2000,g 14.0,4.0
# From MPC105235
P/2009 WX51 (Catalina),e,9.5955,31.6889,118.0652,3.078920,0.1824342,0.74017684,338.4066,07/21.0/2020,2000,g 19.0,2.0
# From MPC 74247
P/2009 Y2 (Kowalski),e,29.9275,262.0237,172.1914,6.548378,0.0588171,0.63576827,223.0019,07/21.0/2020,2000,g 13.0,4.0
# From MPC 75711
P/2010 A3 (Hill),e,14.8835,64.2100,41.8320,6.074704,0.0658289,0.73303189,248.2506,07/21.0/2020,2000,g 14.0,4.0
# From MPC 72851
P/2010 A5 (LINEAR),e,5.7984,277.6648,307.0894,5.084065,0.0859780,0.66511029,321.0131,07/21.0/2020,2000,g 13.0,4.0
# From MPC105235
P/2010 B2 (WISE),e,8.9305,0.8501,155.9238,3.109893,0.1797157,0.47990101,335.4549,07/21.0/2020,2000,g 17.0,4.0
# From MPC 75008
P/2010 C1 (Scotti),e,9.1282,141.8863,3.8455,7.102260,0.0520726,0.25857092,202.9310,07/21.0/2020,2000,g  9.5,4.0
# From MPC 75008
